start=new Date('2022-08-15T00:00:00.000Z').valueOf();
sats=[{"TIME_SYSTEM":"UTC","LAUNCH_DATE":"2022-04-21","RCS_SIZE":"LARGE","FILE":"3536615","RA_OF_ASC_NODE":"197.4965","ARG_OF_PERICENTER":"54.6975","CLASSIFICATION_TYPE":"U","PERIAPSIS":"538.209","OBJECT_NAME":"STARLINK-3775","MEAN_MOTION_DOT":"0.00027229","MEAN_ELEMENT_THEORY":"SGP4","TLE_LINE2":"2 52285  53.2189 197.4965 0002278  54.6975 304.1792 15.08826917  1305","OBJECT_TYPE":"PAYLOAD","SITE":"AFETR","EPHEMERIS_TYPE":"0","DECAY_DATE":null,"MEAN_MOTION":"15.08826917","OBJECT_ID":"2022-041AA","PERIOD":"95.438","REF_FRAME":"TEME","TLE_LINE1":"1 52285U 22041AA  22226.91667824  .00027229  00000-0  17229-2 0  9993","EPOCH":"2022-08-14T22:00:00.999936","MEAN_ANOMALY":"304.1792","REV_AT_EPOCH":"130","APOAPSIS":"541.361","GP_ID":"210235164","ECCENTRICITY":"0.00022780","COUNTRY_CODE":"US","MEAN_MOTION_DDOT":"0.0000000000000","BSTAR":"0.00172290000000","SEMIMAJOR_AXIS":"6917.920","ELEMENT_SET_NO":"999","CENTER_NAME":"EARTH","INCLINATION":"53.2189","NORAD_CAT_ID":"52285"},{"MEAN_ANOMALY":"64.9384","EPOCH":"2022-08-14T22:00:00.999936","REV_AT_EPOCH":"130","APOAPSIS":"540.823","GP_ID":"210235551","COUNTRY_CODE":"US","ECCENTRICITY":"0.00016630","PERIOD":"95.436","OBJECT_ID":"2022-041AB","REF_FRAME":"TEME","TLE_LINE1":"1 52286U 22041AB  22226.91667824 -.00034619  00000-0 -21661-2 0  9992","ELEMENT_SET_NO":"999","SEMIMAJOR_AXIS":"6917.808","INCLINATION":"53.2142","CENTER_NAME":"EARTH","NORAD_CAT_ID":"52286","MEAN_MOTION_DDOT":"0.0000000000000","BSTAR":"-0.00216610000000","PERIAPSIS":"538.522","TLE_LINE2":"2 52286  53.2142 187.4881 0001663  68.9509  64.9384 15.08863800  1309","MEAN_ELEMENT_THEORY":"SGP4","MEAN_MOTION_DOT":"-0.00034619","OBJECT_NAME":"STARLINK-3802","TIME_SYSTEM":"UTC","RCS_SIZE":"LARGE","LAUNCH_DATE":"2022-04-21","CLASSIFICATION_TYPE":"U","ARG_OF_PERICENTER":"68.9509","FILE":"3536615","RA_OF_ASC_NODE":"187.4881","DECAY_DATE":null,"MEAN_MOTION":"15.08863800","EPHEMERIS_TYPE":"0","SITE":"AFETR","OBJECT_TYPE":"PAYLOAD"},{"MEAN_MOTION_DDOT":"0.0000000000000","BSTAR":"0.00160910000000","SEMIMAJOR_AXIS":"6917.928","ELEMENT_SET_NO":"999","CENTER_NAME":"EARTH","INCLINATION":"53.2180","NORAD_CAT_ID":"52287","OBJECT_ID":"2022-041AC","PERIOD":"95.439","REF_FRAME":"TEME","TLE_LINE1":"1 52287U 22041AC  22226.91667824  .00025403  00000-0  16091-2 0  9993","EPOCH":"2022-08-14T22:00:00.999936","MEAN_ANOMALY":"341.5975","APOAPSIS":"541.441","REV_AT_EPOCH":"130","GP_ID":"210234900","ECCENTRICITY":"0.00023820","COUNTRY_CODE":"US","SITE":"AFETR","OBJECT_TYPE":"PAYLOAD","EPHEMERIS_TYPE":"0","MEAN_MOTION":"15.08824312","DECAY_DATE":null,"TIME_SYSTEM":"UTC","RCS_SIZE":"LARGE","LAUNCH_DATE":"2022-04-21","ARG_OF_PERICENTER":"57.2876","FILE":"3536615","RA_OF_ASC_NODE":"197.4966","CLASSIFICATION_TYPE":"U","PERIAPSIS":"538.145","OBJECT_NAME":"STARLINK-3822","MEAN_MOTION_DOT":"0.00025403","MEAN_ELEMENT_THEORY":"SGP4","TLE_LINE2":"2 52287  53.2180 197.4966 0002382  57.2876 341.5975 15.08824312  1309"},{"MEAN_MOTION_DDOT":"0.0000000000000","BSTAR":"0.00076182000000","CENTER_NAME":"EARTH","INCLINATION":"53.2154","ELEMENT_SET_NO":"999","SEMIMAJOR_AXIS":"6917.895","NORAD_CAT_ID":"52288","REF_FRAME":"TEME","PERIOD":"95.438","OBJECT_ID":"2022-041AD","TLE_LINE1":"1 52288U 22041AD  22226.91667824  .00011856  00000-0  76182-3 0  9999","REV_AT_EPOCH":"130","APOAPSIS":"541.036","MEAN_ANOMALY":"89.6919","EPOCH":"2022-08-14T22:00:00.999936","COUNTRY_CODE":"US","ECCENTRICITY":"0.00018450","GP_ID":"210235028","OBJECT_TYPE":"PAYLOAD","SITE":"AFETR","MEAN_MOTION":"15.08835178","DECAY_DATE":null,"EPHEMERIS_TYPE":"0","TIME_SYSTEM":"UTC","CLASSIFICATION_TYPE":"U","ARG_OF_PERICENTER":"64.1432","FILE":"3536615","RA_OF_ASC_NODE":"187.4898","LAUNCH_DATE":"2022-04-21","RCS_SIZE":"LARGE","TLE_LINE2":"2 52288  53.2154 187.4898 0001845  64.1432  89.6919 15.08835178  1302","MEAN_ELEMENT_THEORY":"SGP4","OBJECT_NAME":"STARLINK-3776","MEAN_MOTION_DOT":"0.00011856","PERIAPSIS":"538.484"},{"OBJECT_ID":"2022-041AE","PERIOD":"95.438","REF_FRAME":"TEME","TLE_LINE1":"1 52289U 22041AE  22226.91667824  .00015789  00000-0  10080-2 0  9993","EPOCH":"2022-08-14T22:00:00.999936","MEAN_ANOMALY":"15.0781","APOAPSIS":"541.491","REV_AT_EPOCH":"130","GP_ID":"210234771","ECCENTRICITY":"0.00025080","COUNTRY_CODE":"US","MEAN_MOTION_DDOT":"0.0000000000000","BSTAR":"0.00100800000000","SEMIMAJOR_AXIS":"6917.891","ELEMENT_SET_NO":"999","INCLINATION":"53.2153","CENTER_NAME":"EARTH","NORAD_CAT_ID":"52289","TIME_SYSTEM":"UTC","LAUNCH_DATE":"2022-04-21","RCS_SIZE":"LARGE","ARG_OF_PERICENTER":"58.7608","FILE":"3536615","RA_OF_ASC_NODE":"187.4924","CLASSIFICATION_TYPE":"U","PERIAPSIS":"538.021","MEAN_MOTION_DOT":"0.00015789","OBJECT_NAME":"STARLINK-3751","TLE_LINE2":"2 52289  53.2153 187.4924 0002508  58.7608  15.0781 15.08836632  1309","MEAN_ELEMENT_THEORY":"SGP4","OBJECT_TYPE":"PAYLOAD","SITE":"AFETR","EPHEMERIS_TYPE":"0","MEAN_MOTION":"15.08836632","DECAY_DATE":null},{"SITE":"AFETR","OBJECT_TYPE":"PAYLOAD","EPHEMERIS_TYPE":"0","DECAY_DATE":null,"MEAN_MOTION":"15.08873858","TIME_SYSTEM":"UTC","FILE":"3536615","RA_OF_ASC_NODE":"187.4890","ARG_OF_PERICENTER":"67.1091","CLASSIFICATION_TYPE":"U","RCS_SIZE":"LARGE","LAUNCH_DATE":"2022-04-21","OBJECT_NAME":"STARLINK-3772","MEAN_MOTION_DOT":"-0.00041693","TLE_LINE2":"2 52290  53.2156 187.4890 0001737  67.1091 141.5719 15.08873858  1306","MEAN_ELEMENT_THEORY":"SGP4","PERIAPSIS":"538.440","MEAN_MOTION_DDOT":"0.0000000000000","BSTAR":"-0.00261430000000","INCLINATION":"53.2156","CENTER_NAME":"EARTH","SEMIMAJOR_AXIS":"6917.777","ELEMENT_SET_NO":"999","NORAD_CAT_ID":"52290","REF_FRAME":"TEME","OBJECT_ID":"2022-041AF","PERIOD":"95.435","TLE_LINE1":"1 52290U 22041AF  22226.91667824 -.00041693  00000-0 -26143-2 0  9997","REV_AT_EPOCH":"130","APOAPSIS":"540.844","EPOCH":"2022-08-14T22:00:00.999936","MEAN_ANOMALY":"141.5719","ECCENTRICITY":"0.00017370","COUNTRY_CODE":"US","GP_ID":"210235682"},{"TIME_SYSTEM":"UTC","LAUNCH_DATE":"2022-04-21","RCS_SIZE":"LARGE","RA_OF_ASC_NODE":"187.4903","FILE":"3536615","ARG_OF_PERICENTER":"57.2387","CLASSIFICATION_TYPE":"U","PERIAPSIS":"538.142","OBJECT_NAME":"STARLINK-3773","MEAN_MOTION_DOT":"-0.00002076","MEAN_ELEMENT_THEORY":"SGP4","TLE_LINE2":"2 52291  53.2148 187.4903 0002245  57.2387  56.6324 15.08856608  1308","OBJECT_TYPE":"PAYLOAD","SITE":"AFETR","EPHEMERIS_TYPE":"0","MEAN_MOTION":"15.08856608","DECAY_DATE":null,"OBJECT_ID":"2022-041AG","PERIOD":"95.437","REF_FRAME":"TEME","TLE_LINE1":"1 52291U 22041AG  22226.91667824 -.00002076  00000-0 -11227-3 0  9998","EPOCH":"2022-08-14T22:00:00.999936","MEAN_ANOMALY":"56.6324","REV_AT_EPOCH":"130","APOAPSIS":"541.248","GP_ID":"210235293","ECCENTRICITY":"0.00022450","COUNTRY_CODE":"US","MEAN_MOTION_DDOT":"0.0000000000000","BSTAR":"-0.00011227000000","SEMIMAJOR_AXIS":"6917.830","ELEMENT_SET_NO":"999","CENTER_NAME":"EARTH","INCLINATION":"53.2148","NORAD_CAT_ID":"52291"},{"PERIOD":"95.438","OBJECT_ID":"2022-041AH","REF_FRAME":"TEME","TLE_LINE1":"1 52292U 22041AH  22226.91667824  .00009341  00000-0  60436-3 0  9995","MEAN_ANOMALY":"158.4008","EPOCH":"2022-08-14T22:00:00.999936","APOAPSIS":"540.877","REV_AT_EPOCH":"130","GP_ID":"210235421","COUNTRY_CODE":"US","ECCENTRICITY":"0.00015990","MEAN_MOTION_DDOT":"0.0000000000000","BSTAR":"0.00060436000000","ELEMENT_SET_NO":"999","SEMIMAJOR_AXIS":"6917.905","CENTER_NAME":"EARTH","INCLINATION":"53.2161","NORAD_CAT_ID":"52292","TIME_SYSTEM":"UTC","RCS_SIZE":"MEDIUM","LAUNCH_DATE":"2022-04-21","CLASSIFICATION_TYPE":"U","FILE":"3536615","ARG_OF_PERICENTER":"75.4286","RA_OF_ASC_NODE":"187.4812","PERIAPSIS":"538.664","MEAN_ELEMENT_THEORY":"SGP4","TLE_LINE2":"2 52292  53.2161 187.4812 0001599  75.4286 158.4008 15.08831814  1306","OBJECT_NAME":"STARLINK-3753","MEAN_MOTION_DOT":"0.00009341","SITE":"AFETR","OBJECT_TYPE":"PAYLOAD","MEAN_MOTION":"15.08831814","DECAY_DATE":null,"EPHEMERIS_TYPE":"0"},{"OBJECT_TYPE":"PAYLOAD","SITE":"AFETR","DECAY_DATE":null,"MEAN_MOTION":"15.08858086","EPHEMERIS_TYPE":"0","TIME_SYSTEM":"UTC","LAUNCH_DATE":"2022-04-21","RCS_SIZE":"LARGE","CLASSIFICATION_TYPE":"U","RA_OF_ASC_NODE":"187.4889","FILE":"3536615","ARG_OF_PERICENTER":"66.9497","PERIAPSIS":"538.510","TLE_LINE2":"2 52293  53.2162 187.4889 0001706  66.9497 106.9023 15.08858086  1306","MEAN_ELEMENT_THEORY":"SGP4","OBJECT_NAME":"STARLINK-3771","MEAN_MOTION_DOT":"-0.00024743","MEAN_MOTION_DDOT":"0.0000000000000","BSTAR":"-0.00154110000000","ELEMENT_SET_NO":"999","SEMIMAJOR_AXIS":"6917.825","CENTER_NAME":"EARTH","INCLINATION":"53.2162","NORAD_CAT_ID":"52293","PERIOD":"95.436","OBJECT_ID":"2022-041AJ","REF_FRAME":"TEME","TLE_LINE1":"1 52293U 22041AJ  22226.91667824 -.00024743  00000-0 -15411-2 0  9993","MEAN_ANOMALY":"106.9023","EPOCH":"2022-08-14T22:00:00.999936","REV_AT_EPOCH":"130","APOAPSIS":"540.870","GP_ID":"210235165","COUNTRY_CODE":"US","ECCENTRICITY":"0.00017060"},{"SITE":"AFETR","OBJECT_TYPE":"PAYLOAD","MEAN_MOTION":"15.08843214","DECAY_DATE":null,"EPHEMERIS_TYPE":"0","CLASSIFICATION_TYPE":"U","FILE":"3536615","RA_OF_ASC_NODE":"187.4807","ARG_OF_PERICENTER":"76.2202","RCS_SIZE":"MEDIUM","LAUNCH_DATE":"2022-04-21","TIME_SYSTEM":"UTC","TLE_LINE2":"2 52294  53.2171 187.4807 0001348  76.2202 177.6376 15.08843214  1300","MEAN_ELEMENT_THEORY":"SGP4","OBJECT_NAME":"STARLINK-3777","MEAN_MOTION_DOT":"0.00009618","PERIAPSIS":"538.803","BSTAR":"0.00062151000000","MEAN_MOTION_DDOT":"0.0000000000000","NORAD_CAT_ID":"52294","CENTER_NAME":"EARTH","INCLINATION":"53.2171","ELEMENT_SET_NO":"999","SEMIMAJOR_AXIS":"6917.871","TLE_LINE1":"1 52294U 22041AK  22226.91667824  .00009618  00000-0  62151-3 0  9990","REF_FRAME":"TEME","PERIOD":"95.437","OBJECT_ID":"2022-041AK","COUNTRY_CODE":"US","ECCENTRICITY":"0.00013480","GP_ID":"210235552","REV_AT_EPOCH":"130","APOAPSIS":"540.668","MEAN_ANOMALY":"177.6376","EPOCH":"2022-08-14T22:00:00.999936"}];
